{
  "type": "FeatureCollection",
  "features": [
    {
      "type": "Feature",
      "properties": {
        "norad_id": 30013,
        "name": "FENGYUN 1C DEB",
        "group": "fengyun-1c-debris",
        "lat": -65.04475727274954,
        "lon": 158.43936960620553,
        "alt_km": 1036.8103527913217,
        "timestamp": "2025-12-06T11:28:11.335802+00:00",
        "meta_object_name": "FENGYUN 1C DEB",
        "meta_object_id": "1999-025MN",
        "meta_epoch": "2025-12-06T00:02:58.745184",
        "meta_mean_motion": 13.87819113,
        "meta_eccentricity": 0.01283966,
        "meta_inclination": 99.5804,
        "meta_ra_of_asc_node": 359.2313,
        "meta_arg_of_pericenter": 61.8798,
        "meta_mean_anomaly": 328.9768,
        "meta_ephemeris_type": 0,
        "meta_classification_type": "U",
        "meta_norad_cat_id": 30013,
        "meta_element_set_no": 999,
        "meta_rev_at_epoch": 95588,
        "meta_bstar": 0.00040166665,
        "meta_mean_motion_dot": 4.63e-06,
        "meta_mean_motion_ddot": 0,
        "tle_line1": "1 30013U 99025MN  25340.00206881  .00000463  00000+0  40167-3 0  9994",
        "tle_line2": "2 30013  99.5804 359.2313 0128396  61.8798 328.9768 13.87819113955888"
      },
      "geometry": {
        "type": "Point",
        "coordinates": [
          158.43936960620553,
          -65.04475727274954
        ]
      }
    },
    {
      "type": "Feature",
      "properties": {
        "norad_id": 30015,
        "name": "FENGYUN 1C DEB",
        "group": "fengyun-1c-debris",
        "lat": -33.962481970219265,
        "lon": 156.69189508766652,
        "alt_km": 786.5153610986799,
        "timestamp": "2025-12-06T11:28:11.335812+00:00",
        "meta_object_name": "FENGYUN 1C DEB",
        "meta_object_id": "1999-025MQ",
        "meta_epoch": "2025-12-05T23:01:24.626784",
        "meta_mean_motion": 14.30768112,
        "meta_eccentricity": 0.00383541,
        "meta_inclination": 99.2279,
        "meta_ra_of_asc_node": 342.4283,
        "meta_arg_of_pericenter": 144.2665,
        "meta_mean_anomaly": 280.0112,
        "meta_ephemeris_type": 0,
        "meta_classification_type": "U",
        "meta_norad_cat_id": 30015,
        "meta_element_set_no": 999,
        "meta_rev_at_epoch": 98076,
        "meta_bstar": 0.00105404,
        "meta_mean_motion_dot": 2.735e-05,
        "meta_mean_motion_ddot": 0,
        "tle_line1": "1 30015U 99025MQ  25339.95931281  .00002735  00000+0  10540-2 0  9992",
        "tle_line2": "2 30015  99.2279 342.4283 0038354 144.2665 280.0112 14.30768112980763"
      },
      "geometry": {
        "type": "Point",
        "coordinates": [
          156.69189508766652,
          -33.962481970219265
        ]
      }
    },
    {
      "type": "Feature",
      "properties": {
        "norad_id": 30016,
        "name": "FENGYUN 1C DEB",
        "group": "fengyun-1c-debris",
        "lat": -10.095752065569906,
        "lon": -6.616836209606285,
        "alt_km": 627.7026072543867,
        "timestamp": "2025-12-06T11:28:11.335823+00:00",
        "meta_object_name": "FENGYUN 1C DEB",
        "meta_object_id": "1999-025MR",
        "meta_epoch": "2025-12-05T11:50:57.856416",
        "meta_mean_motion": 14.78209811,
        "meta_eccentricity": 0.00474337,
        "meta_inclination": 98.9048,
        "meta_ra_of_asc_node": 350.6962,
        "meta_arg_of_pericenter": 63.3298,
        "meta_mean_anomaly": 92.7066,
        "meta_ephemeris_type": 0,
        "meta_classification_type": "U",
        "meta_norad_cat_id": 30016,
        "meta_element_set_no": 999,
        "meta_rev_at_epoch": 99346,
        "meta_bstar": 0.0032028225,
        "meta_mean_motion_dot": 0.00023676,
        "meta_mean_motion_ddot": 0,
        "tle_line1": "1 30016U 99025MR  25339.49372519  .00023676  00000+0  32028-2 0  9997",
        "tle_line2": "2 30016  98.9048 350.6962 0047433  63.3298  92.7066 14.78209811993465"
      },
      "geometry": {
        "type": "Point",
        "coordinates": [
          -6.616836209606285,
          -10.095752065569906
        ]
      }
    },
    {
      "type": "Feature",
      "properties": {
        "norad_id": 30017,
        "name": "FENGYUN 1C DEB",
        "group": "fengyun-1c-debris",
        "lat": 23.60093158959579,
        "lon": -151.4369451720016,
        "alt_km": 567.2867914749067,
        "timestamp": "2025-12-06T11:28:11.335833+00:00",
        "meta_object_name": "FENGYUN 1C DEB",
        "meta_object_id": "1999-025MS",
        "meta_epoch": "2025-12-05T16:40:10.778880",
        "meta_mean_motion": 14.61170318,
        "meta_eccentricity": 0.02171167,
        "meta_inclination": 98.7554,
        "meta_ra_of_asc_node": 23.8732,
        "meta_arg_of_pericenter": 196.7841,
        "meta_mean_anomaly": 162.6096,
        "meta_ephemeris_type": 0,
        "meta_classification_type": "U",
        "meta_norad_cat_id": 30017,
        "meta_element_set_no": 999,
        "meta_rev_at_epoch": 341,
        "meta_bstar": 0.00033352164,
        "meta_mean_motion_dot": 2.229e-05,
        "meta_mean_motion_ddot": 0,
        "tle_line1": "1 30017U 99025MS  25339.69456920  .00002229  00000+0  33352-3 0  9992",
        "tle_line2": "2 30017  98.7554  23.8732 0217116 196.7841 162.6096 14.61170318  3410"
      },
      "geometry": {
        "type": "Point",
        "coordinates": [
          -151.4369451720016,
          23.60093158959579
        ]
      }
    },
    {
      "type": "Feature",
      "properties": {
        "norad_id": 30018,
        "name": "FENGYUN 1C DEB",
        "group": "fengyun-1c-debris",
        "lat": -74.26817881037633,
        "lon": 95.80400931681292,
        "alt_km": 627.1088881997966,
        "timestamp": "2025-12-06T11:28:11.335843+00:00",
        "meta_object_name": "FENGYUN 1C DEB",
        "meta_object_id": "1999-025MT",
        "meta_epoch": "2025-12-05T23:34:56.594208",
        "meta_mean_motion": 14.73054218,
        "meta_eccentricity": 0.01166398,
        "meta_inclination": 98.757,
        "meta_ra_of_asc_node": 62.094,
        "meta_arg_of_pericenter": 216.6625,
        "meta_mean_anomaly": 320.1694,
        "meta_ephemeris_type": 0,
        "meta_classification_type": "U",
        "meta_norad_cat_id": 30018,
        "meta_element_set_no": 999,
        "meta_rev_at_epoch": 337,
        "meta_bstar": 0.0012964469,
        "meta_mean_motion_dot": 9.234e-05,
        "meta_mean_motion_ddot": 0,
        "tle_line1": "1 30018U 99025MT  25339.98259947  .00009234  00000+0  12964-2 0  9993",
        "tle_line2": "2 30018  98.7570  62.0940 0116639 216.6625 320.1694 14.73054218  3378"
      },
      "geometry": {
        "type": "Point",
        "coordinates": [
          95.80400931681292,
          -74.26817881037633
        ]
      }
    },
    {
      "type": "Feature",
      "properties": {
        "norad_id": 30020,
        "name": "FENGYUN 1C DEB",
        "group": "fengyun-1c-debris",
        "lat": 53.651354109231434,
        "lon": 176.66589883704788,
        "alt_km": 766.3170503297952,
        "timestamp": "2025-12-06T11:28:11.335853+00:00",
        "meta_object_name": "FENGYUN 1C DEB",
        "meta_object_id": "1999-025MV",
        "meta_epoch": "2025-12-05T23:03:48.189024",
        "meta_mean_motion": 14.04445271,
        "meta_eccentricity": 0.01840713,
        "meta_inclination": 98.8466,
        "meta_ra_of_asc_node": 343.9438,
        "meta_arg_of_pericenter": 89.3761,
        "meta_mean_anomaly": 302.5154,
        "meta_ephemeris_type": 0,
        "meta_classification_type": "U",
        "meta_norad_cat_id": 30020,
        "meta_element_set_no": 999,
        "meta_rev_at_epoch": 96563,
        "meta_bstar": 0.00083225082,
        "meta_mean_motion_dot": 1.502e-05,
        "meta_mean_motion_ddot": 0,
        "tle_line1": "1 30020U 99025MV  25339.96097441  .00001502  00000+0  83225-3 0  9992",
        "tle_line2": "2 30020  98.8466 343.9438 0184071  89.3761 302.5154 14.04445271965638"
      },
      "geometry": {
        "type": "Point",
        "coordinates": [
          176.66589883704788,
          53.651354109231434
        ]
      }
    },
    {
      "type": "Feature",
      "properties": {
        "norad_id": 30021,
        "name": "FENGYUN 1C DEB",
        "group": "fengyun-1c-debris",
        "lat": -79.37979223812037,
        "lon": 28.20948811362269,
        "alt_km": 838.3490639143411,
        "timestamp": "2025-12-06T11:28:11.335862+00:00",
        "meta_object_name": "FENGYUN 1C DEB",
        "meta_object_id": "1999-025MW",
        "meta_epoch": "2025-12-05T22:20:35.708640",
        "meta_mean_motion": 14.04885473,
        "meta_eccentricity": 0.0072124,
        "meta_inclination": 98.8347,
        "meta_ra_of_asc_node": 331.637,
        "meta_arg_of_pericenter": 306.3784,
        "meta_mean_anomaly": 85.2749,
        "meta_ephemeris_type": 0,
        "meta_classification_type": "U",
        "meta_norad_cat_id": 30021,
        "meta_element_set_no": 999,
        "meta_rev_at_epoch": 96836,
        "meta_bstar": 0.00022952431,
        "meta_mean_motion_dot": 3.34e-06,
        "meta_mean_motion_ddot": 0,
        "tle_line1": "1 30021U 99025MW  25339.93096885  .00000334  00000+0  22952-3 0  9993",
        "tle_line2": "2 30021  98.8347 331.6370 0072124 306.3784  85.2749 14.04885473968368"
      },
      "geometry": {
        "type": "Point",
        "coordinates": [
          28.20948811362269,
          -79.37979223812037
        ]
      }
    }
  ]
}